{"type": "FeatureCollection", "features": [ {"type": "Feature", "properties": {"norad_id": 41836, "name": "HIMAWARI-9", "group": "weather", "lat": 0.019658134776999497, "lon": 89.77582413172902, "alt_km": 35790.33802492332, "timestamp": "2025-12-15T14:57:57.486393+00:00", "meta": {"OBJECT_NAME": "HIMAWARI-9", "OBJECT_ID": "2016-064A", "EPOCH": "2025-12-14T22:38:53.164032", "MEAN_MOTION": 1.00272988, "ECCENTRICITY": 0.00010766, "INCLINATION": 0.0419, "RA_OF_ASC_NODE": 96.9426, "ARG_OF_PERICENTER": 179.7054, "MEAN_ANOMALY": 287.6965, "EPHEMERIS_TYPE": 0, "CLASSIFICATION_TYPE": "U", "NORAD_CAT_ID": 41836, "ELEMENT_SET_NO": 999, "REV_AT_EPOCH": 3336, "BSTAR": 0, "MEAN_MOTION_DOT": -2.54e-06, "MEAN_MOTION_DDOT": 0}, "tle": {"line1": "1 41836U 16064A   25348.94367088 -.00000254  00000+0  00000+0 0  9996", "line2": "2 41836   0.0419  96.9426 0001076 179.7054 287.6965  1.00272988 33366"}}, "geometry": {"type": "Point", "coordinates": [89.77582413172902, 0.019658134776999497]}}, {"type": "Feature", "properties": {"norad_id": 41866, "name": "GOES 16", "group": "weather", "lat": 0.04605380174510794, "lon": -155.7033982672042, "alt_km": 35779.33209128423, "timestamp": "2025-12-15T14:57:57.486404+00:00", "meta": {"OBJECT_NAME": "GOES 16", "OBJECT_ID": "2016-071A", "EPOCH": "2025-12-14T21:28:52.370112", "MEAN_MOTION": 1.00271726, "ECCENTRICITY": 0.0003131, "INCLINATION": 0.0685, "RA_OF_ASC_NODE": 103.8102, "ARG_OF_PERICENTER": 159.876, "MEAN_ANOMALY": 37.663, "EPHEMERIS_TYPE": 0, "CLASSIFICATION_TYPE": "U", "NORAD_CAT_ID": 41866, "ELEMENT_SET_NO": 999, "REV_AT_EPOCH": 3325, "BSTAR": 0, "MEAN_MOTION_DOT": -7.1e-07, "MEAN_MOTION_DDOT": 0}, "tle": {"line1": "1 41866U 16071A   25348.89505058 -.00000071  00000+0  00000+0 0  9999", "line2": "2 41866   0.0685 103.8102 0003131 159.8760  37.6630  1.00271726 33259"}}, "geometry": {"type": "Point", "coordinates": [-155.7033982672042, 0.04605380174510794]}}, {"type": "Feature", "properties": {"norad_id": 41882, "name": "FENGYUN 4A", "group": "weather", "lat": -0.2854261555372283, "lon": 72.79251022325865, "alt_km": 35804.938870113736, "timestamp": "2025-12-15T14:57:57.486415+00:00", "meta": {"OBJECT_NAME": "FENGYUN 4A", "OBJECT_ID": "2016-077A", "EPOCH": "2025-12-14T22:34:08.617728", "MEAN_MOTION": 1.00268788, "ECCENTRICITY": 0.00046636, "INCLINATION": 1.8549, "RA_OF_ASC_NODE": 82.371, "ARG_OF_PERICENTER": 145.253, "MEAN_ANOMALY": 318.5762, "EPHEMERIS_TYPE": 0, "CLASSIFICATION_TYPE": "U", "NORAD_CAT_ID": 41882, "ELEMENT_SET_NO": 999, "REV_AT_EPOCH": 3308, "BSTAR": 0, "MEAN_MOTION_DOT": -3.37e-06, "MEAN_MOTION_DDOT": 0}, "tle": {"line1": "1 41882U 16077A   25348.94037752 -.00000337  00000+0  00000+0 0  9995", "line2": "2 41882   1.8549  82.3710 0004663 145.2530 318.5762  1.00268788 33088"}}, "geometry": {"type": "Point", "coordinates": [72.79251022325865, -0.2854261555372283]}}, {"type": "Feature", "properties": {"norad_id": 41884, "name": "CYGFM05", "group": "weather", "lat": -33.98825191723672, "lon": -76.91701437752428, "alt_km": 420.64010126129324, "timestamp": "2025-12-15T14:57:57.486425+00:00", "meta": {"OBJECT_NAME": "CYGFM05", "OBJECT_ID": "2016-078A", "EPOCH": "2025-12-14T13:05:27.014784", "MEAN_MOTION": 15.47715424, "ECCENTRICITY": 0.00103023, "INCLINATION": 34.9605, "RA_OF_ASC_NODE": 35.3355, "ARG_OF_PERICENTER": 199.7033, "MEAN_ANOMALY": 160.3291, "EPHEMERIS_TYPE": 0, "CLASSIFICATION_TYPE": "U", "NORAD_CAT_ID": 41884, "ELEMENT_SET_NO": 999, "REV_AT_EPOCH": 50004, "BSTAR": 0.00031699886, "MEAN_MOTION_DOT": 0.00016932, "MEAN_MOTION_DDOT": 0}, "tle": {"line1": "1 41884U 16078A   25348.54545156  .00016932  00000+0  31700-3 0  9998", "line2": "2 41884  34.9605  35.3355 0010302 199.7033 160.3291 15.47715424500047"}}, "geometry": {"type": "Point", "coordinates": [-76.91701437752428, -33.98825191723672]}}, {"type": "Feature", "properties": {"norad_id": 41885, "name": "CYGFM04", "group": "weather", "lat": 8.457139576528675, "lon": 170.68664279843458, "alt_km": 410.8747392647638, "timestamp": "2025-12-15T14:57:57.486435+00:00", "meta": {"OBJECT_NAME": "CYGFM04", "OBJECT_ID": "2016-078B", "EPOCH": "2025-12-14T18:10:05.194848", "MEAN_MOTION": 15.50454805, "ECCENTRICITY": 0.00096664, "INCLINATION": 34.936, "RA_OF_ASC_NODE": 8.6715, "ARG_OF_PERICENTER": 227.8627, "MEAN_ANOMALY": 132.1274, "EPHEMERIS_TYPE": 0, "CLASSIFICATION_TYPE": "U", "NORAD_CAT_ID": 41885, "ELEMENT_SET_NO": 999, "REV_AT_EPOCH": 50025, "BSTAR": 0.0003416535, "MEAN_MOTION_DOT": 0.00020114, "MEAN_MOTION_DDOT": 0}, "tle": {"line1": "1 41885U 16078B   25348.75700457  .00020114  00000+0  34165-3 0  9994", "line2": "2 41885  34.9360   8.6715 0009666 227.8627 132.1274 15.50454805500250"}}, "geometry": {"type": "Point", "coordinates": [170.68664279843458, 8.457139576528675]}}, {"type": "Feature", "properties": {"norad_id": 41886, "name": "CYGFM02", "group": "weather", "lat": -7.162111823510443, "lon": -168.35886645536473, "alt_km": 405.42063841964045, "timestamp": "2025-12-15T14:57:57.486444+00:00", "meta": {"OBJECT_NAME": "CYGFM02", "OBJECT_ID": "2016-078C", "EPOCH": "2025-12-14T18:04:08.215104", "MEAN_MOTION": 15.51840334, "ECCENTRICITY": 0.00113371, "INCLINATION": 34.9447, "RA_OF_ASC_NODE": 6.9988, "ARG_OF_PERICENTER": 227.6036, "MEAN_ANOMALY": 132.3727, "EPHEMERIS_TYPE": 0, "CLASSIFICATION_TYPE": "U", "NORAD_CAT_ID": 41886, "ELEMENT_SET_NO": 999, "REV_AT_EPOCH": 50038, "BSTAR": 0.00034471489, "MEAN_MOTION_DOT": 0.00021348, "MEAN_MOTION_DDOT": 0}, "tle": {"line1": "1 41886U 16078C   25348.75287286  .00021348  00000+0  34471-3 0  9995", "line2": "2 41886  34.9447   6.9988 0011337 227.6036 132.3727 15.51840334500386"}}, "geometry": {"type": "Point", "coordinates": [-168.35886645536473, -7.162111823510443]}}, {"type": "Feature", "properties": {"norad_id": 41887, "name": "CYGFM01", "group": "weather", "lat": -26.940713743070575, "lon": -16.086146290144118, "alt_km": 425.00017170996125, "timestamp": "2025-12-15T14:57:57.486454+00:00", "meta": {"OBJECT_NAME": "CYGFM01", "OBJECT_ID": "2016-078D", "EPOCH": "2025-12-14T12:53:04.318656", "MEAN_MOTION": 15.48297149, "ECCENTRICITY": 0.00099043, "INCLINATION": 34.9436, "RA_OF_ASC_NODE": 37.7283, "ARG_OF_PERICENTER": 191.9393, "MEAN_ANOMALY": 168.1095, "EPHEMERIS_TYPE": 0, "CLASSIFICATION_TYPE": "U", "NORAD_CAT_ID": 41887, "ELEMENT_SET_NO": 999, "REV_AT_EPOCH": 49998, "BSTAR": 0.00032899537, "MEAN_MOTION_DOT": 0.00017938, "MEAN_MOTION_DDOT": 0}, "tle": {"line1": "1 41887U 16078D   25348.53685554  .00017938  00000+0  32900-3 0  9997", "line2": "2 41887  34.9436  37.7283 0009904 191.9393 168.1095 15.48297149499985"}}, "geometry": {"type": "Point", "coordinates": [-16.086146290144118, -26.940713743070575]}}, {"type": "Feature", "properties": {"norad_id": 41888, "name": "CYGFM08", "group": "weather", "lat": 4.915683906137772, "lon": 20.653941034173645, "alt_km": 422.7270859860355, "timestamp": "2025-12-15T14:57:57.486463+00:00", "meta": {"OBJECT_NAME": "CYGFM08", "OBJECT_ID": "2016-078E", "EPOCH": "2025-12-14T18:49:39.991296", "MEAN_MOTION": 15.4951328, "ECCENTRICITY": 0.00117756, "INCLINATION": 34.9469, "RA_OF_ASC_NODE": 19.0769, "ARG_OF_PERICENTER": 217.1503, "MEAN_ANOMALY": 142.8405, "EPHEMERIS_TYPE": 0, "CLASSIFICATION_TYPE": "U", "NORAD_CAT_ID": 41888, "ELEMENT_SET_NO": 999, "REV_AT_EPOCH": 50025, "BSTAR": 0.0002750149, "MEAN_MOTION_DOT": 0.00015653, "MEAN_MOTION_DDOT": 0}, "tle": {"line1": "1 41888U 16078E   25348.78449064  .00015653  00000+0  27501-3 0  9992", "line2": "2 41888  34.9469  19.0769 0011775 217.1503 142.8405 15.49513280500252"}}, "geometry": {"type": "Point", "coordinates": [20.653941034173645, 4.915683906137772]}}, {"type": "Feature", "properties": {"norad_id": 41890, "name": "CYGFM07", "group": "weather", "lat": 1.3907717994691773, "lon": 4.536551508737357, "alt_km": 418.5312696946812, "timestamp": "2025-12-15T14:57:57.486473+00:00", "meta": {"OBJECT_NAME": "CYGFM07", "OBJECT_ID": "2016-078G", "EPOCH": "2025-12-14T11:08:00.987648", "MEAN_MOTION": 15.50086962, "ECCENTRICITY": 0.00100354, "INCLINATION": 34.9485, "RA_OF_ASC_NODE": 10.1487, "ARG_OF_PERICENTER": 230.6716, "MEAN_ANOMALY": 129.3117, "EPHEMERIS_TYPE": 0, "CLASSIFICATION_TYPE": "U", "NORAD_CAT_ID": 41890, "ELEMENT_SET_NO": 999, "REV_AT_EPOCH": 50022, "BSTAR": 0.00033505643, "MEAN_MOTION_DOT": 0.00019468, "MEAN_MOTION_DDOT": 0}, "tle": {"line1": "1 41890U 16078G   25348.46390032  .00019468  00000+0  33506-3 0  9990", "line2": "2 41890  34.9485  10.1487 0010035 230.6716 129.3117 15.50086962500227"}}, "geometry": {"type": "Point", "coordinates": [4.536551508737357, 1.3907717994691773]}}, {"type": "Feature", "properties": {"norad_id": 41891, "name": "CYGFM03", "group": "weather", "lat": -9.125805691902887, "lon": -162.23528618682428, "alt_km": 411.22225062611415, "timestamp": "2025-12-15T14:57:57.486482+00:00", "meta": {"OBJECT_NAME": "CYGFM03", "OBJECT_ID": "2016-078H", "EPOCH": "2025-12-14T18:01:45.093504", "MEAN_MOTION": 15.49996518, "ECCENTRICITY": 0.00095028, "INCLINATION": 34.944, "RA_OF_ASC_NODE": 10.1843, "ARG_OF_PERICENTER": 220.7718, "MEAN_ANOMALY": 139.2294, "EPHEMERIS_TYPE": 0, "CLASSIFICATION_TYPE": "U", "NORAD_CAT_ID": 41891, "ELEMENT_SET_NO": 999, "REV_AT_EPOCH": 50024, "BSTAR": 0.0003331193, "MEAN_MOTION_DOT": 0.00019289, "MEAN_MOTION_DDOT": 0}, "tle": {"line1": "1 41891U 16078H   25348.75121636  .00019289  00000+0  33312-3 0  9991", "line2": "2 41891  34.9440  10.1843 0009502 220.7718 139.2294 15.49996518500247"}}, "geometry": {"type": "Point", "coordinates": [-162.23528618682428, -9.125805691902887]}}]}